CCSDS_OMM_VERS = 2.0
CREATION_DATE  = 
ORIGINATOR     = 

OBJECT_NAME    = SL-16 R/B
OBJECT_ID      = 1998-045B
CENTER_NAME    = EARTH
REF_FRAME      = TEME
TIME_SYSTEM    = UTC
MEAN_ELEMENT_THEORY = SGP/SGP4

EPOCH          = 2026-03-19T07:41:33.677088
MEAN_MOTION    = 14.16195043
ECCENTRICITY   = .00073931
INCLINATION    = 71.0119
RA_OF_ASC_NODE = 161.3222
ARG_OF_PERICENTER = 352.8085
MEAN_ANOMALY   = 7.2931

EPHEMERIS_TYPE = 0
CLASSIFICATION_TYPE = U
NORAD_CAT_ID   = 25407
ELEMENT_SET_NO = 999
REV_AT_EPOCH   = 42846
BSTAR          = .77526302E-4
MEAN_MOTION_DOT = .106E-5
MEAN_MOTION_DDOT = 0

CCSDS_OMM_VERS = 2.0
CREATION_DATE  = 
ORIGINATOR     = 

OBJECT_NAME    = ISS (ZARYA)
OBJECT_ID      = 1998-067A
CENTER_NAME    = EARTH
REF_FRAME      = TEME
TIME_SYSTEM    = UTC
MEAN_ELEMENT_THEORY = SGP/SGP4

EPOCH          = 2026-03-19T03:06:36.144000
MEAN_MOTION    = 15.48370465
ECCENTRICITY   = .0006229
INCLINATION    = 51.6344
RA_OF_ASC_NODE = 25.6919
ARG_OF_PERICENTER = 207.4819
MEAN_ANOMALY   = 152.5840

EPHEMERIS_TYPE = 0
CLASSIFICATION_TYPE = U
NORAD_CAT_ID   = 25544
ELEMENT_SET_NO = 999
REV_AT_EPOCH   = 55779
BSTAR          = .17697854E-3
MEAN_MOTION_DOT = .9105E-4
MEAN_MOTION_DDOT = 0

CCSDS_OMM_VERS = 2.0
CREATION_DATE  = 
ORIGINATOR     = 

OBJECT_NAME    = CZ-4B R/B
OBJECT_ID      = 1999-025C
CENTER_NAME    = EARTH
REF_FRAME      = TEME
TIME_SYSTEM    = UTC
MEAN_ELEMENT_THEORY = SGP/SGP4

EPOCH          = 2026-03-19T02:50:22.416000
MEAN_MOTION    = 14.18267189
ECCENTRICITY   = .00362928
INCLINATION    = 98.6606
RA_OF_ASC_NODE = 122.1758
ARG_OF_PERICENTER = 319.1028
MEAN_ANOMALY   = 98.9129

EPHEMERIS_TYPE = 0
CLASSIFICATION_TYPE = U
NORAD_CAT_ID   = 25732
ELEMENT_SET_NO = 999
REV_AT_EPOCH   = 38950
BSTAR          = .38915517E-4
MEAN_MOTION_DOT = .37E-6
MEAN_MOTION_DDOT = 0

CCSDS_OMM_VERS = 2.0
CREATION_DATE  = 
ORIGINATOR     = 

OBJECT_NAME    = OKEAN-O
OBJECT_ID      = 1999-039A
CENTER_NAME    = EARTH
REF_FRAME      = TEME
TIME_SYSTEM    = UTC
MEAN_ELEMENT_THEORY = SGP/SGP4

EPOCH          = 2026-03-19T04:22:55.643808
MEAN_MOTION    = 14.80350428
ECCENTRICITY   = .00010014
INCLINATION    = 97.9422
RA_OF_ASC_NODE = 137.9767
ARG_OF_PERICENTER = 75.7660
MEAN_ANOMALY   = 284.3663

EPHEMERIS_TYPE = 0
CLASSIFICATION_TYPE = U
NORAD_CAT_ID   = 25860
ELEMENT_SET_NO = 999
REV_AT_EPOCH   = 43579
BSTAR          = .84721849E-4
MEAN_MOTION_DOT = .594E-5
MEAN_MOTION_DDOT = 0

CCSDS_OMM_VERS = 2.0
CREATION_DATE  = 
ORIGINATOR     = 

OBJECT_NAME    = SL-16 R/B
OBJECT_ID      = 1999-039B
CENTER_NAME    = EARTH
REF_FRAME      = TEME
TIME_SYSTEM    = UTC
MEAN_ELEMENT_THEORY = SGP/SGP4

EPOCH          = 2026-03-19T03:41:04.324128
MEAN_MOTION    = 14.81744191
ECCENTRICITY   = .00138646
INCLINATION    = 97.9944
RA_OF_ASC_NODE = 137.2351
ARG_OF_PERICENTER = 222.8249
MEAN_ANOMALY   = 137.1885

EPHEMERIS_TYPE = 0
CLASSIFICATION_TYPE = U
NORAD_CAT_ID   = 25861
ELEMENT_SET_NO = 999
REV_AT_EPOCH   = 43826
BSTAR          = .68761452E-4
MEAN_MOTION_DOT = .489E-5
MEAN_MOTION_DDOT = 0

CCSDS_OMM_VERS = 2.0
CREATION_DATE  = 
ORIGINATOR     = 

OBJECT_NAME    = DELTA 2 R/B
OBJECT_ID      = 1999-041E
CENTER_NAME    = EARTH
REF_FRAME      = TEME
TIME_SYSTEM    = UTC
MEAN_ELEMENT_THEORY = SGP/SGP4

EPOCH          = 2026-03-19T05:03:53.806752
MEAN_MOTION    = 14.11862874
ECCENTRICITY   = .0502585
INCLINATION    = 51.7608
RA_OF_ASC_NODE = 263.2469
ARG_OF_PERICENTER = 16.5164
MEAN_ANOMALY   = 345.1493

EPHEMERIS_TYPE = 0
CLASSIFICATION_TYPE = U
NORAD_CAT_ID   = 25876
ELEMENT_SET_NO = 999
REV_AT_EPOCH   = 36437
BSTAR          = .12151976E-3
MEAN_MOTION_DOT = .51E-5
MEAN_MOTION_DDOT = 0

CCSDS_OMM_VERS = 2.0
CREATION_DATE  = 
ORIGINATOR     = 

OBJECT_NAME    = HELIOS 1B
OBJECT_ID      = 1999-064A
CENTER_NAME    = EARTH
REF_FRAME      = TEME
TIME_SYSTEM    = UTC
MEAN_ELEMENT_THEORY = SGP/SGP4

EPOCH          = 2026-03-19T06:20:50.943264
MEAN_MOTION    = 14.87735155
ECCENTRICITY   = .00022471
INCLINATION    = 98.1686
RA_OF_ASC_NODE = 340.7888
ARG_OF_PERICENTER = 61.6317
MEAN_ANOMALY   = 298.5124

EPHEMERIS_TYPE = 0
CLASSIFICATION_TYPE = U
NORAD_CAT_ID   = 25977
ELEMENT_SET_NO = 999
REV_AT_EPOCH   = 68668
BSTAR          = .16826159E-3
MEAN_MOTION_DOT = .1476E-4
MEAN_MOTION_DDOT = 0

CCSDS_OMM_VERS = 2.0
CREATION_DATE  = 
ORIGINATOR     = 

OBJECT_NAME    = TERRA
OBJECT_ID      = 1999-068A
CENTER_NAME    = EARTH
REF_FRAME      = TEME
TIME_SYSTEM    = UTC
MEAN_ELEMENT_THEORY = SGP/SGP4

EPOCH          = 2026-03-19T05:32:25.046016
MEAN_MOTION    = 14.61024517
ECCENTRICITY   = .00032404
INCLINATION    = 97.9573
RA_OF_ASC_NODE = 131.3002
ARG_OF_PERICENTER = 130.9793
MEAN_ANOMALY   = 269.2014

EPHEMERIS_TYPE = 0
CLASSIFICATION_TYPE = U
NORAD_CAT_ID   = 25994
ELEMENT_SET_NO = 999
REV_AT_EPOCH   = 39647
BSTAR          = .84122204E-4
MEAN_MOTION_DOT = .368E-5
MEAN_MOTION_DDOT = 0

CCSDS_OMM_VERS = 2.0
CREATION_DATE  = 
ORIGINATOR     = 

OBJECT_NAME    = SL-16 R/B
OBJECT_ID      = 2000-006B
CENTER_NAME    = EARTH
REF_FRAME      = TEME
TIME_SYSTEM    = UTC
MEAN_ELEMENT_THEORY = SGP/SGP4

EPOCH          = 2026-03-19T06:25:38.032320
MEAN_MOTION    = 14.15823696
ECCENTRICITY   = .0016253
INCLINATION    = 71.0004
RA_OF_ASC_NODE = 77.6957
ARG_OF_PERICENTER = 175.2757
MEAN_ANOMALY   = 184.8522

EPHEMERIS_TYPE = 0
CLASSIFICATION_TYPE = U
NORAD_CAT_ID   = 26070
ELEMENT_SET_NO = 999
REV_AT_EPOCH   = 34991
BSTAR          = -.39104947E-4
MEAN_MOTION_DOT = -.125E-5
MEAN_MOTION_DDOT = 0

CCSDS_OMM_VERS = 2.0
CREATION_DATE  = 
ORIGINATOR     = 

OBJECT_NAME    = TITAN 4B R/B
OBJECT_ID      = 2000-047B
CENTER_NAME    = EARTH
REF_FRAME      = TEME
TIME_SYSTEM    = UTC
MEAN_ELEMENT_THEORY = SGP/SGP4

EPOCH          = 2026-03-19T05:41:49.758144
MEAN_MOTION    = 15.09653086
ECCENTRICITY   = .00390397
INCLINATION    = 67.9913
RA_OF_ASC_NODE = 13.6609
ARG_OF_PERICENTER = 24.0786
MEAN_ANOMALY   = 336.2177

EPHEMERIS_TYPE = 0
CLASSIFICATION_TYPE = U
NORAD_CAT_ID   = 26474
ELEMENT_SET_NO = 999
REV_AT_EPOCH   = 39435
BSTAR          = .22284364E-3
MEAN_MOTION_DOT = .3523E-4
MEAN_MOTION_DDOT = 0

CCSDS_OMM_VERS = 2.0
CREATION_DATE  = 
ORIGINATOR     = 

OBJECT_NAME    = ENVISAT
OBJECT_ID      = 2002-009A
CENTER_NAME    = EARTH
REF_FRAME      = TEME
TIME_SYSTEM    = UTC
MEAN_ELEMENT_THEORY = SGP/SGP4

EPOCH          = 2026-03-19T07:07:36.222528
MEAN_MOTION    = 14.39040268
ECCENTRICITY   = .00013007
INCLINATION    = 98.3745
RA_OF_ASC_NODE = 31.6664
ARG_OF_PERICENTER = 82.3639
MEAN_ANOMALY   = 82.8751

EPHEMERIS_TYPE = 0
CLASSIFICATION_TYPE = U
NORAD_CAT_ID   = 27386
ELEMENT_SET_NO = 999
REV_AT_EPOCH   = 26055
BSTAR          = .45276883E-4
MEAN_MOTION_DOT = .97E-6
MEAN_MOTION_DDOT = 0

CCSDS_OMM_VERS = 2.0
CREATION_DATE  = 
ORIGINATOR     = 

OBJECT_NAME    = IDEFIX & ARIANE 42P R/B
OBJECT_ID      = 2002-021B
CENTER_NAME    = EARTH
REF_FRAME      = TEME
TIME_SYSTEM    = UTC
MEAN_ELEMENT_THEORY = SGP/SGP4

EPOCH          = 2026-03-19T06:49:52.494240
MEAN_MOTION    = 14.31032563
ECCENTRICITY   = .00121327
INCLINATION    = 98.5881
RA_OF_ASC_NODE = 16.7768
ARG_OF_PERICENTER = 154.1226
MEAN_ANOMALY   = 206.0566

EPHEMERIS_TYPE = 0
CLASSIFICATION_TYPE = U
NORAD_CAT_ID   = 27422
ELEMENT_SET_NO = 999
REV_AT_EPOCH   = 24539
BSTAR          = .10828242E-3
MEAN_MOTION_DOT = .242E-5
MEAN_MOTION_DDOT = 0

